OBJECT_NAME,OBJECT_ID,EPOCH,MEAN_MOTION,ECCENTRICITY,INCLINATION,RA_OF_ASC_NODE,ARG_OF_PERICENTER,MEAN_ANOMALY,EPHEMERIS_TYPE,CLASSIFICATION_TYPE,NORAD_CAT_ID,ELEMENT_SET_NO,REV_AT_EPOCH,BSTAR,MEAN_MOTION_DOT,MEAN_MOTION_DDOT
DUBAISAT-1,2009-041B,2026-07-06T08:28:30.364608,14.75157203,.00106207,98.0075,320.4034,17.0415,343.1149,0,U,35682,999,90792,.14948587E-3,.959E-5,0
OCEANSAT-2,2009-051A,2026-07-06T20:35:48.612192,13.99657766,.001678,98.2318,172.7459,177.7227,182.4019,0,U,35931,999,88208,-.10424E-3,-.19E-5,0
WORLDVIEW-2 (WV-2),2009-055A,2026-07-06T20:33:31.740768,14.37905345,.0004928,98.4759,261.0380,150.4468,209.6998,0,U,35946,999,87847,.49238E-4,.105E-5,0
SMOS,2009-059A,2026-07-06T12:13:18.388704,14.39783231,.00013012,98.4427,14.5612,86.9470,273.1867,0,U,36036,999,87623,.89704494E-4,.238E-5,0
YAOGAN-7,2009-069A,2026-07-06T15:41:27.383424,14.78030005,.00241,98.0047,73.3985,339.8276,20.1980,0,U,36110,999,89250,.71723E-4,.467E-5,0
TANDEM-X,2010-030A,2026-07-06T11:47:13.873920,15.19153296,.00018532,97.4457,194.9233,95.7650,264.3796,0,U,36605,999,88957,.24210035E-4,.441E-5,0
CARTOSAT-2B,2010-035A,2026-07-06T19:53:26.922048,14.78610538,.0012316,97.9937,238.2523,123.4294,236.8097,0,U,36795,999,86275,.11417E-3,.784E-5,0
YAOGAN-10,2010-038A,2026-07-06T21:32:58.079616,14.85411784,.0001614,97.8969,211.1446,84.5037,36.1055,0,U,36834,999,86013,.20947E-3,.175E-4,0
COSMO-SKYMED 4,2010-060A,2026-07-06T19:39:43.691616,14.82165514,.000152,97.8895,11.1347,86.2606,273.8781,0,U,37216,999,84747,.16285E-3,.1245E-4,0
RESOURCESAT-2,2011-015A,2026-07-06T19:06:32.408352,14.21604729,.0011088,98.7635,255.1018,195.0494,165.0355,0,U,37387,999,78896,.53528E-4,.73E-6,0
HAIYANG-2A,2011-043A,2026-07-06T20:15:09.819360,13.73745547,.0004015,99.3400,190.0750,51.8244,308.3266,0,U,37781,999,74935,-.64141E-4,-.103E-5,0
RASAT,2011-044D,2026-07-06T21:06:51.971616,14.68187793,.0021602,98.0576,278.9767,127.5950,326.6654,0,U,37791,999,79607,.1187E-3,.636E-5,0
SRMSAT,2011-058D,2026-07-06T08:57:33.674688,14.11579689,.0011875,19.9727,303.3445,55.1210,344.5933,0,U,37841,999,76053,.64430167E-4,.384E-5,0
PLEIADES 1A,2011-076F,2026-07-06T19:46:05.202912,14.58544796,.0001742,98.1966,262.6625,83.4025,26.5972,0,U,38012,999,77485,.12248E-3,.524E-5,0
ZIYUAN 1-02C (ZY 1-02C),2011-079A,2026-07-06T21:38:34.116000,14.38231004,.0005234,98.4058,254.7978,244.2425,170.5040,0,U,38038,999,76204,.11468E-3,.305E-5,0
ARIRANG-3 (KOMPSAT-3),2012-025B,2026-07-06T21:03:32.846400,14.62224033,.0006628,98.1180,144.9987,60.2494,299.9366,0,U,38338,999,75422,.87994E-4,.397E-5,0
EXACTVIEW-1 (ADS-1B),2012-039C,2026-07-06T08:08:47.630688,14.24990420,.00118909,98.9797,305.1641,114.6379,245.6039,0,U,38709,999,72543,.74291809E-4,.128E-5,0
SPOT 6,2012-047A,2026-07-06T19:38:00.743424,14.58535781,.0001173,98.2106,254.8967,78.3153,281.8178,0,U,38755,999,73591,.88057E-4,.363E-5,0
PLEIADES 1B,2012-068A,2026-07-06T20:04:47.881920,14.58573360,.0001648,98.1937,262.6178,81.9346,278.2040,0,U,39019,999,72371,.69995E-4,.28E-5,0
GOKTURK 2,2012-073A,2026-07-06T19:32:31.655328,14.75563783,.0000945,97.6814,24.2611,69.6135,290.5176,0,U,39030,999,72740,.91496E-4,.576E-5,0
LANDSAT 8,2013-008A,2026-07-06T19:14:27.083040,14.57107863,.0001349,98.2293,257.7033,94.4684,265.6669,0,U,39084,999,70075,.70399E-4,.272E-5,0
SARAL,2013-009A,2026-07-06T19:16:07.623264,14.32894268,.0001178,98.5554,14.1220,191.1197,168.9962,0,U,39086,999,69841,.43401E-4,.75E-6,0
GAOFEN-1,2013-018A,2026-07-06T20:25:37.141248,14.76514078,.0016328,97.9083,259.5192,198.4285,161.6335,0,U,39150,999,71114,.12573E-3,.827E-5,0
VNREDSAT 1,2013-021B,2026-07-06T19:54:39.763296,14.64878208,.0001669,97.9064,240.4914,82.1095,278.0298,0,U,39160,999,70316,.90468E-4,.438E-5,0
ARIRANG-5 (KOMPSAT-5),2013-042A,2026-07-06T20:27:36.481248,15.04561970,.0005445,97.6216,14.2760,75.4574,284.7256,0,U,39227,999,70681,.17396E-3,.2379E-4,0
SKYSAT-A,2013-066C,2026-07-06T16:49:21.119232,15.13083788,.001987,97.3802,236.4763,244.4924,115.4252,0,U,39418,999,69143,.15799E-3,.2744E-4,0
DUBAISAT-2,2013-066D,2026-07-06T21:09:04.757184,15.10335816,.0010049,97.4579,177.5113,335.7116,24.3639,0,U,39419,999,68936,.16957E-3,.272E-4,0
GPM-CORE,2014-009C,2026-07-06T16:42:14.419872,15.44977181,.0011131,64.9704,242.7707,259.2531,100.7357,0,U,39574,999,70082,.1273E-3,.5787E-4,0
SENTINEL-1A,2014-016A,2026-07-06T20:12:08.553024,14.59199535,.0001396,98.1783,195.0874,86.1484,273.9875,0,U,39634,999,65288,-.20371E-4,-.142E-5,0
KAZEOSAT 1,2014-024A,2026-07-06T20:46:40.939104,14.42035431,.0001302,98.3194,259.8234,80.7675,279.3662,0,U,39731,999,64139,.70196E-4,.188E-5,0
